{
    "links": {
        "self": "http://www.neowsapp.com/rest/v1/neo/3835821?api_key=iIulBulltgU6a56xZRHN4H3l9WmuAYTsLGpBGhQ2"
    },
    "id": "3835821",
    "neo_reference_id": "3835821",
    "name": "(2018 UA3)",
    "designation": "2018 UA3",
    "nasa_jpl_url": "http://ssd.jpl.nasa.gov/sbdb.cgi?sstr=3835821",
    "absolute_magnitude_h": 23.6,
    "estimated_diameter": {
        "kilometers": {
            "estimated_diameter_min": 0.0506471459,
            "estimated_diameter_max": 0.1132504611
        },
        "meters": {
            "estimated_diameter_min": 50.6471458835,
            "estimated_diameter_max": 113.2504610618
        },
        "miles": {
            "estimated_diameter_min": 0.0314706677,
            "estimated_diameter_max": 0.0703705522
        },
        "feet": {
            "estimated_diameter_min": 166.1651821003,
            "estimated_diameter_max": 371.5566426699
        }
    },
    "is_potentially_hazardous_asteroid": false,
    "close_approach_data": [
        {
            "close_approach_date": "2014-10-03",
            "close_approach_date_full": "2014-Oct-03 18:20",
            "epoch_date_close_approach": 1412360400000,
            "relative_velocity": {
                "kilometers_per_second": "8.8352647917",
                "kilometers_per_hour": "31806.9532499802",
                "miles_per_hour": "19763.6038124669"
            },
            "miss_distance": {
                "astronomical": "0.4432291094",
                "lunar": "172.4161235566",
                "kilometers": "66306130.688236978",
                "miles": "41200719.1069391764"
            },
            "orbiting_body": "Earth"
        },
        {
            "close_approach_date": "2018-11-07",
            "close_approach_date_full": "2018-Nov-07 10:07",
            "epoch_date_close_approach": 1541585220000,
            "relative_velocity": {
                "kilometers_per_second": "11.2883488441",
                "kilometers_per_hour": "40638.0558386164",
                "miles_per_hour": "25250.907529278"
            },
            "miss_distance": {
                "astronomical": "0.0556814925",
                "lunar": "21.6601005825",
                "kilometers": "8329832.676420975",
                "miles": "5175918.014620455"
            },
            "orbiting_body": "Earth"
        },
        {
            "close_approach_date": "2019-01-25",
            "close_approach_date_full": "2019-Jan-25 01:03",
            "epoch_date_close_approach": 1548378180000,
            "relative_velocity": {
                "kilometers_per_second": "12.4115362671",
                "kilometers_per_hour": "44681.5305616579",
                "miles_per_hour": "27763.3654759368"
            },
            "miss_distance": {
                "astronomical": "0.0868970566",
                "lunar": "33.8029550174",
                "kilometers": "12999614.576629442",
                "miles": "8077585.9352806196"
            },
            "orbiting_body": "Venus"
        },
        {
            "close_approach_date": "2022-10-17",
            "close_approach_date_full": "2022-Oct-17 06:53",
            "epoch_date_close_approach": 1665989580000,
            "relative_velocity": {
                "kilometers_per_second": "24.2195432464",
                "kilometers_per_hour": "87190.3556871527",
                "miles_per_hour": "54176.6962879422"
            },
            "miss_distance": {
                "astronomical": "0.3962719276",
                "lunar": "154.1497798364",
                "kilometers": "59281436.309754212",
                "miles": "36835776.4252316456"
            },
            "orbiting_body": "Earth"
        },
        {
            "close_approach_date": "2024-05-29",
            "close_approach_date_full": "2024-May-29 02:40",
            "epoch_date_close_approach": 1716950400000,
            "relative_velocity": {
                "kilometers_per_second": "24.6833252665",
                "kilometers_per_hour": "88859.970959544",
                "miles_per_hour": "55214.1302887233"
            },
            "miss_distance": {
                "astronomical": "0.419623543",
                "lunar": "163.233558227",
                "kilometers": "62774788.23465341",
                "miles": "39006444.656140658"
            },
            "orbiting_body": "Earth"
        }
    ],
    "orbital_data": {
        "orbit_id": "5",
        "orbit_determination_date": "2018-11-03 06:47:47",
        "first_observation_date": "2018-10-28",
        "last_observation_date": "2018-11-03",
        "data_arc_in_days": 6,
        "observations_used": 57,
        "orbit_uncertainty": "7",
        "minimum_orbit_intersection": ".04302",
        "jupiter_tisserand_invariant": "5.213",
        "epoch_osculation": "2459000.5",
        "eccentricity": ".4242997388099154",
        "semi_major_axis": "1.197458524152387",
        "inclination": "3.059872412622849",
        "ascending_node_longitude": "348.6514738879727",
        "orbital_period": "478.6181311836039",
        "perihelion_distance": ".6893771851188222",
        "perihelion_argument": "145.6783017784739",
        "aphelion_distance": "1.705539863185951",
        "perihelion_time": "2458967.212286536589",
        "mean_anomaly": "25.03786644520358",
        "mean_motion": ".7521654039928118",
        "equinox": "J2000",
        "orbit_class": {
            "orbit_class_type": "APO",
            "orbit_class_description": "Near-Earth asteroid orbits which cross the Earth’s orbit similar to that of 1862 Apollo",
            "orbit_class_range": "a (semi-major axis) > 1.0 AU; q (perihelion) < 1.017 AU"
        }
    },
    "is_sentry_object": false
}